sat04733
1 04733U 70025CG  20046.75732122  .00000270  00000-0  79434-4 0  9992
2 04733  99.8804 337.5415 0121752 253.1214 105.6595 14.49971433589380
